[{"OBJECT_NAME":"OPTICUBE 04","OBJECT_ID":"2016-067D","EPOCH":"2026-03-09T12:14:28.758048","MEAN_MOTION":15.09188378,"ECCENTRICITY":0.00170901,"INCLINATION":98.0811,"RA_OF_ASC_NODE":275.5525,"ARG_OF_PERICENTER":94.6311,"MEAN_ANOMALY":265.6869,"EPHEMERIS_TYPE":0,"CLASSIFICATION_TYPE":"U","NORAD_CAT_ID":41851,"ELEMENT_SET_NO":999,"REV_AT_EPOCH":51013,"BSTAR":0.00024566739,"MEAN_MOTION_DOT":3.845e-5,"MEAN_MOTION_DDOT":0},{"OBJECT_NAME":"STARLINK-4190","OBJECT_ID":"2022-076R","EPOCH":"2026-03-09T08:09:17.691840","MEAN_MOTION":15.08837005,"ECCENTRICITY":0.00010666,"INCLINATION":53.216,"RA_OF_ASC_NODE":95.6918,"ARG_OF_PERICENTER":72.4522,"MEAN_ANOMALY":287.6587,"EPHEMERIS_TYPE":0,"CLASSIFICATION_TYPE":"U","NORAD_CAT_ID":53001,"ELEMENT_SET_NO":999,"REV_AT_EPOCH":20279,"BSTAR":2.3947554e-5,"MEAN_MOTION_DOT":9.3e-7,"MEAN_MOTION_DDOT":0}]
